Name;Address;ZIP-Code;City;Country
Abel Maclead;37275 St  Rt 17m M;42256;Middle Island NY;US
Albina Glick;4 Ralph Ct;2715;Dunellen NJ;US
Alease Buemi;4 Webbs Chapel Rd;2703;Boulder CO;US
Alishia Sergi;2742 Distribution Way;42261;New York NY;US
Allene Iturbide;1 Central Ave;99950;Stevens Point WI;US
Amber Monarrez;14288 Foster Ave #4121;2718;Jenkintown PA;US
Ammie Corrio;74874 Atlantic Ave;2703;Columbus OH;US
Andræ Løkke;18 Fountain St;610;Anchorage AK;US
Angella Cetta;185 Blackstone Bldge;2718;Honolulu HI;US
Arlene Klusman;3 Secor Rd;42261;New Orleans LA;US
Arlette Honeywell;11279 Loytan St;2718;Jacksonville FL;US
Art Venere;8 W Cerritos Ave #54;2703;Bridgeport NJ;US
Bernardo Figeroa;386 9th Ave N;2703;Conroe TX;US
Blair Malet;209 Decker Dr;99654;Philadelphia PA;US
Blondell Pugh;201 Hawk Ct;99654;Providence RI;US
Bobbye Rhym;30 W 80th St #1995;99657;San Carlos CA;US
Brock Bolognia;4486 W O St #1;42261;New York NY;US
Cammy Albares;56 E Morehead St;2718;Laredo TX;US
Carma Vanheusen;68556 Central Hwy;99657;San Leandro CA;US
Carmelina Lindall;2664 Lewis Rd;3251;Littleton CO;US
Cecily Hollack;59 N Groesbeck Hwy;614;Austin TX;US
Celeste Korando;7 W Pinhook Rd;3251;Lynbrook NY;US
Chanel Caudy;86 Nw 66th St #8673;99665;Shawnee KS;US
Cory Gibes;83649 W Belmont Ave;99657;San Gabriel CA;US
Cyndy Goldammer;170 Wyoming Ave;2703;Burnsville MN;US
Danica Bruschke;840 15th Ave;99950;Waco TX;US
Deeanna Juhas;14302 Pennsylvania Ave;2718;Huntingdon Valley PA;US
Delisa Crupi;47565 W Grand Ave;42261;Newark NJ;US
Delmy Ahle;65895 S 16th St;99654;Providence RI;US
Devorah Chickering;31 Douglas Blvd #950;2703;Clovis NM;US
Dominque Dickerson;69 Marquette Ave;2718;Hayward CA;US
Donette Foller;34 Center St;2718;Hamilton OH;US
Donte Kines;3 Aspen St;99950;Worcester MA;US
Dyan Oldroyd;7219 Woodfield Rd;99644;Overland Park KS;US
Edna Miceli;555 Main St;2718;Erie PA;US
Elly Morocco;7 W 32nd St;2718;Erie PA;US
Elvera Benimadho;99385 Charity St #840;99657;San Jose CA;US
Elza Lipke;6794 Lake Dr E;42261;Newark NJ;US
Emerson Bowley;762 S Main St;3251;Madison WI;US
Erick Ferencz;20 S Babcock St;2718;Fairbanks AK;US
Ernie Stenseth;45 E Liberty St;99655;Ridgefield Park NJ;US
Estrella Samu;64 Lakeview Ave;617;Beloit WI;US
Ezekiel Chui;2 Cedar Ave #84;2718;Easton MD;US
Fatima Saylors;2 Lighthouse Ave;2718;Hopkins MN;US
Fletcher Flosi;394 Manchester Blvd;99655;Rockford IL;US
Francine Vocelka;366 South Dr;2718;Las Cruces NM;US
Gladys Rim;322 New Horizon Blvd;42256;Milwaukee WI;US
Graciela Ruta;98 Connecticut Ave Nw;2703;Chagrin Falls OH;US
Ilene Eroman;2853 S Central Expy;2718;Glen Burnie MD;US
Jamal Vanausdal;53075 Sw 152nd Ter #615;42256;Monroe Township NJ;US
Jina Briddick;38938 Park Blvd;2135;Boston MA;US
Johnetta Abdallah;1088 Pinehurst St;2703;Chapel Hill NC;US
Jose Stockham;128 Bransten Rd;42261;New York NY;US
Josephine Darakjy;4 B Blue Ridge Blvd;2703;Brighton MI;US
Kallie Blackwood;701 S Harrison Rd;99657;San Francisco CA;US
Kanisha Waycott;5 Tomahawk Dr;3251;Los Angeles CA;US
Karl Klonowski;76 Brooks St #9;2718;Flemington NJ;US
Kiley Caldarera;25 E 75th St #69;3251;Los Angeles CA;US
Kris Marrier;228 Runamuck Pl #2808;614;Baltimore MD;US
Lai Gato;37 Alabama Ave;2718;Evanston IL;US
Laurel Reitler;6 Kains Ave;614;Baltimore MD;US
Lavera Perin;678 3rd Ave;33055;Miami FL;US
Lenna Paprocki;639 Main St;610;Anchorage AK;US
Leota Dilliard;7 W Jackson Blvd;99657;San Jose CA;US
Lettie Isenhower;70 W Main St;617;Beachwood OH;US
Lisha Centini;64 5th Ave #1153;3251;Mc Lean VA;US
Lorrie Nestle;39 S 7th St;99950;Tullahoma TN;US
Louisa Cronauer;524 Louisiana Ave Nw;99657;San Leandro CA;US
Malinda Hochard;55 Riverside Ave;2718;Indianapolis IN;US
Marjory Mastella;71 San Mateo Ave;99950;Wayne PA;US
Maryann Royster;74 S Westgate St;605;Albany NY;US
Mattie Poquette;73 State Road 434 E;99654;Phoenix AZ;US
Maurine Yglesias;59 Shady Ln #53;42256;Milwaukee WI;US
Meaghan Garufi;69734 E Carrillo St;3251;Mc Minnville TN;US
Micaela Rhymes;20932 Hedley St;2703;Concord CA;US
Minna Amigon;2371 Jerrold Ave;2718;Kulpsville PA;US
Mitsue Tollner;7 Eads St;2703;Chicago IL;US
Moon Parlato;74989 Brandon St;99950;Wellsville NY;US
Münzel Babette;6 S 33rd St;614;Aston PA;US
Myra Munns;461 Prospect Pl #316;2718;Euless TX;US
Natalie Fern;7140 University Ave;99655;Rock Springs WY;US
Rosio Cork;4 10th St W;2718;High Point NC;US
Roxane Campain;1048 Main St;2718;Fairbanks AK;US
Rozella Ostrosky;17 Morena Blvd;2703;Camarillo CA;US
Sabra Uyetake;98839 Hawthorne Blvd #6101;2703;Columbia SC;US
Sage Wieser;5 Boston Ave #88;99950;Sioux Falls SD;US
Shenika Seewald;4 Otis St;99950;Van Nuys CA;US
Simona Morasca;3 Mcauley Dr;614;Ashland OH;US
?lusarski Alisha;3273 State St;42256;Middlesex NJ;US
Solange Shinko;426 Wolf St;3253;Metairie LA;US
Stephaine Barfield;47154 Whipple Ave Nw;2718;Gardena CA;US
Stephen Emigh;3777 E Richmond St #900;605;Akron OH;US
Tamar Hoogland;2737 Pistorio Rd #9230;3251;London OH;US
Tammara Wardrip;4800 Black Horse Pike;2703;Burlingame CA;US
Tawna Buvens;3305 Nabell Ave #679;42261;New York NY;US
Tiffiny Steffensmeier;32860 Sierra Rd;33055;Miami FL;US
Timothy Mulqueen;44 W 4th St;99950;Staten Island NY;US
Tonette Wenner;4545 Courthouse Rd;99950;Westbury NY;US
Twana Felger;1 Commerce Way;99654;Portland OR;US
Tyra Shields;3 Fort Worth Ave;99654;Philadelphia PA;US
Valentine Gillian;775 W 17th St;99657;San Antonio TX;US
Vallie Mondella;74 W College St;617;Boise ID;US
Veronika Inouye;6 Greenleaf Ave;99657;San Jose CA;US
Viva Toelkes;4284 Dorigo Ln;2703;Chicago IL;US
Wilda Giguere;1747 Calle Amanecer #2;610;Anchorage AK;US
Willard Kolmetz;618 W Yakima Ave;2718;Irving TX;US
Willow Kusko;90991 Thorburn Ave;42261;New York NY;US
Yuki Whobrey;1 State Route 27;99950;Taylor MI;US
